[{"OBJECT_NAME":"STARLINK-5245","OBJECT_ID":"2022-141M","EPOCH":"2026-03-09T01:49:05.651904","MEAN_MOTION":15.08839767,"ECCENTRICITY":0.00016987,"INCLINATION":53.2197,"RA_OF_ASC_NODE":6.9648,"ARG_OF_PERICENTER":91.7916,"MEAN_ANOMALY":268.3271,"EPHEMERIS_TYPE":0,"CLASSIFICATION_TYPE":"U","NORAD_CAT_ID":54168,"ELEMENT_SET_NO":999,"REV_AT_EPOCH":18576,"BSTAR":-1.023546e-6,"MEAN_MOTION_DOT":-3.04e-6,"MEAN_MOTION_DDOT":0},{"OBJECT_NAME":"CZ-6A DEB","OBJECT_ID":"2024-140DW","EPOCH":"2026-03-09T12:42:27.831456","MEAN_MOTION":14.74987574,"ECCENTRICITY":0.01550337,"INCLINATION":88.9082,"RA_OF_ASC_NODE":275.4322,"ARG_OF_PERICENTER":135.579,"MEAN_ANOMALY":225.799,"EPHEMERIS_TYPE":0,"CLASSIFICATION_TYPE":"U","NORAD_CAT_ID":60717,"ELEMENT_SET_NO":999,"REV_AT_EPOCH":8391,"BSTAR":0.0030954876,"MEAN_MOTION_DOT":0.00025382,"MEAN_MOTION_DDOT":0}]
